{"type": "FeatureCollection", "name": "fc_synthetic_demo_20260115T0000Z_iss20260115T0430Z_8b7e9ae9 lead 24 h", "label": "EXPERIMENTAL snowpack-structure prediction for expert decision support. Not an avalanche forecast, danger rating or operational guidance.", "run_id": "fc_synthetic_demo_20260115T0000Z_iss20260115T0430Z_8b7e9ae9", "source_crs": "EPSG:32611", "features": [{"type": "Feature", "geometry": {"type": "Polygon", "coordinates": [[[-115.69697082284006, 51.21912870590776], [-115.68265585778977, 51.21896842610748], [-115.68239917600829, 51.227958201192955], [-115.69671692836503, 51.22811853217826], [-115.69697082284006, 51.21912870590776]]]}, "properties": {"unit_id": "u000_001", "supported": true, "elevation_m": 1717.2, "slope_deg": 5.1, "aspect_deg": 358.8, "sky_view_factor": 0.953, "land_cover": "open", "unit_resolution_m": 1000.0, "transport_status": "unresolved", "synthetic_inputs": true, "lead_hours": 24, "valid_time": "2026-01-16T00:00:00+00:00", "n_members": 5.0, "hs_vertical_m_control": 1.044, "hs_vertical_m_p10": 1.0336, "hs_vertical_m_p50": 1.0385, "hs_vertical_m_p90": 1.0436, "swe_kg_m2_horizontal_p50": 281.43, "new_snow_since_init_vertical_m_control": 0.0755, "new_snow_since_init_vertical_m_p50": 0.0696, "crust_present_member_fraction": 1.0, "crust_shallowest_depth_vertical_m_control": 0.722, "crust_shallowest_form_control": "MFcr", "candidate_weak_layer_member_fraction": 1.0, "candidate_weak_layer_shallowest_depth_vertical_m_control": 0.076, "candidate_weak_layer_form_control": "FC", "surface_lwc_vol_frac_max_member_p50": 0.0, "status": "ok"}}, {"type": "Feature", "geometry": {"type": "Polygon", "coordinates": [[[-115.68265585778977, 51.21896842610748], [-115.66834102504866, 51.218806395785606], [-115.6680815560506, 51.22779611912741], [-115.68239917600829, 51.227958201192955], [-115.68265585778977, 51.21896842610748]]]}, "properties": {"unit_id": "u000_002", "supported": true, "elevation_m": 1718.1, "slope_deg": 5.1, "aspect_deg": 1.1, "sky_view_factor": 0.949, "land_cover": "open", "unit_resolution_m": 1000.0, "transport_status": "unresolved", "synthetic_inputs": true, "lead_hours": 24, "valid_time": "2026-01-16T00:00:00+00:00", "n_members": 5.0, "hs_vertical_m_control": 1.0435, "hs_vertical_m_p10": 1.0331, "hs_vertical_m_p50": 1.038, "hs_vertical_m_p90": 1.0431, "swe_kg_m2_horizontal_p50": 281.38, "new_snow_since_init_vertical_m_control": 0.0755, "new_snow_since_init_vertical_m_p50": 0.0696, "crust_present_member_fraction": 1.0, "crust_shallowest_depth_vertical_m_control": 0.722, "crust_shallowest_form_control": "MFcr", "candidate_weak_layer_member_fraction": 1.0, "candidate_weak_layer_shallowest_depth_vertical_m_control": 0.075, "candidate_weak_layer_form_control": "FC", "surface_lwc_vol_frac_max_member_p50": 0.0, "status": "ok"}}, {"type": "Feature", "geometry": {"type": "Polygon", "coordinates": [[[-115.66834102504866, 51.218806395785606], [-115.65402632605227, 51.21864261498029], [-115.65376406992847, 51.22763228601979], [-115.6680815560506, 51.22779611912741], [-115.66834102504866, 51.218806395785606]]]}, "properties": {"unit_id": "u000_003", "supported": true, "elevation_m": 1718.5, "slope_deg": 5.3, "aspect_deg": 1.8, "sky_view_factor": 0.95, "land_cover": "open", "unit_resolution_m": 1000.0, "transport_status": "unresolved", "synthetic_inputs": true, "lead_hours": 24, "valid_time": "2026-01-16T00:00:00+00:00", "n_members": 5.0, "hs_vertical_m_control": 1.0434, "hs_vertical_m_p10": 1.033, "hs_vertical_m_p50": 1.0379, "hs_vertical_m_p90": 1.043, "swe_kg_m2_horizontal_p50": 281.27, "new_snow_since_init_vertical_m_control": 0.0755, "new_snow_since_init_vertical_m_p50": 0.0696, "crust_present_member_fraction": 1.0, "crust_shallowest_depth_vertical_m_control": 0.722, "crust_shallowest_form_control": "MFcr", "candidate_weak_layer_member_fraction": 1.0, "candidate_weak_layer_shallowest_depth_vertical_m_control": 0.076, "candidate_weak_layer_form_control": "FC", "surface_lwc_vol_frac_max_member_p50": 0.0, "status": "ok"}}, {"type": "Feature", "geometry": {"type": "Polygon", "coordinates": [[[-115.65402632605227, 51.21864261498029], [-115.63971176223602, 51.2184770837301], [-115.63944671907834, 51.22746670190867], [-115.65376406992847, 51.22763228601979], [-115.65402632605227, 51.21864261498029]]]}, "properties": {"unit_id": "u000_004", "supported": true, "elevation_m": 1717.9, "slope_deg": 5.0, "aspect_deg": 357.2, "sky_view_factor": 0.951, "land_cover": "open", "unit_resolution_m": 1000.0, "transport_status": "unresolved", "synthetic_inputs": true, "lead_hours": 24, "valid_time": "2026-01-16T00:00:00+00:00", "n_members": 5.0, "hs_vertical_m_control": 1.0441, "hs_vertical_m_p10": 1.0337, "hs_vertical_m_p50": 1.0386, "hs_vertical_m_p90": 1.0437, "swe_kg_m2_horizontal_p50": 281.58, "new_snow_since_init_vertical_m_control": 0.0755, "new_snow_since_init_vertical_m_p50": 0.0696, "crust_present_member_fraction": 1.0, "crust_shallowest_depth_vertical_m_control": 0.722, "crust_shallowest_form_control": "MFcr", "candidate_weak_layer_member_fraction": 1.0, "candidate_weak_layer_shallowest_depth_vertical_m_control": 0.076, "candidate_weak_layer_form_control": "FC", "surface_lwc_vol_frac_max_member_p50": 0.0, "status": "ok"}}, {"type": "Feature", "geometry": {"type": "Polygon", "coordinates": [[[-115.63971176223602, 51.2184770837301], [-115.62539733503533, 51.218309802073996], [-115.6251295049365, 51.227299366833044], [-115.63944671907834, 51.22746670190867], [-115.63971176223602, 51.2184770837301]]]}, "properties": {"unit_id": "u000_005", "supported": true, "elevation_m": 1719.8, "slope_deg": 5.5, "aspect_deg": 359.5, "sky_view_factor": 0.954, "land_cover": "open", "unit_resolution_m": 1000.0, "transport_status": "unresolved", "synthetic_inputs": true, "lead_hours": 24, "valid_time": "2026-01-16T00:00:00+00:00", "n_members": 5.0, "hs_vertical_m_control": 1.0449, "hs_vertical_m_p10": 1.0345, "hs_vertical_m_p50": 1.0394, "hs_vertical_m_p90": 1.0445, "swe_kg_m2_horizontal_p50": 281.71, "new_snow_since_init_vertical_m_control": 0.0754, "new_snow_since_init_vertical_m_p50": 0.0695, "crust_present_member_fraction": 1.0, "crust_shallowest_depth_vertical_m_control": 0.722, "crust_shallowest_form_control": "MFcr", "candidate_weak_layer_member_fraction": 1.0, "candidate_weak_layer_shallowest_depth_vertical_m_control": 0.075, "candidate_weak_layer_form_control": "FC", "surface_lwc_vol_frac_max_member_p50": 0.0, "status": "ok"}}, {"type": "Feature", "geometry": {"type": "Polygon", "coordinates": [[[-115.62539733503533, 51.218309802073996], [-115.61108304588542, 51.21814077005135], [-115.61081242893924, 51.22713028083231], [-115.6251295049365, 51.227299366833044], [-115.62539733503533, 51.218309802073996]]]}, "properties": {"unit_id": "u000_006", "supported": true, "elevation_m": 1724.5, "slope_deg": 6.3, "aspect_deg": 358.6, "sky_view_factor": 0.959, "land_cover": "open", "unit_resolution_m": 1000.0, "transport_status": "unresolved", "synthetic_inputs": true, "lead_hours": 24, "valid_time": "2026-01-16T00:00:00+00:00", "n_members": 5.0, "hs_vertical_m_control": 1.0559, "hs_vertical_m_p10": 1.0455, "hs_vertical_m_p50": 1.0504, "hs_vertical_m_p90": 1.0555, "swe_kg_m2_horizontal_p50": 285.89, "new_snow_since_init_vertical_m_control": 0.0752, "new_snow_since_init_vertical_m_p50": 0.0693, "crust_present_member_fraction": 1.0, "crust_shallowest_depth_vertical_m_control": 0.723, "crust_shallowest_form_control": "MFcr", "candidate_weak_layer_member_fraction": 1.0, "candidate_weak_layer_shallowest_depth_vertical_m_control": 0.075, "candidate_weak_layer_form_control": "FC", "surface_lwc_vol_frac_max_member_p50": 0.0, "status": "ok"}}, {"type": "Feature", "geometry": {"type": "Polygon", "coordinates": [[[-115.71153689640572, 51.21029734347869], [-115.69722458644151, 51.2101388648444], [-115.69697082284006, 51.21912870590776], [-115.71128591876392, 51.21928723514875], [-115.71153689640572, 51.21029734347869]]]}, "properties": {"unit_id": "u001_000", "supported": true, "elevation_m": 2021.2, "slope_deg": 31.9, "aspect_deg": 0.3, "sky_view_factor": 0.918, "land_cover": "open", "unit_resolution_m": 1000.0, "transport_status": "unresolved", "synthetic_inputs": true, "lead_hours": 24, "valid_time": "2026-01-16T00:00:00+00:00", "n_members": 5.0, "hs_vertical_m_control": 1.2548, "hs_vertical_m_p10": 1.2556, "hs_vertical_m_p50": 1.2581, "hs_vertical_m_p90": 1.267, "swe_kg_m2_horizontal_p50": 339.98, "new_snow_since_init_vertical_m_control": 0.0672, "new_snow_since_init_vertical_m_p50": 0.0701, "crust_present_member_fraction": 1.0, "crust_shallowest_depth_vertical_m_control": 0.776, "crust_shallowest_form_control": "MFcr", "candidate_weak_layer_member_fraction": 1.0, "candidate_weak_layer_shallowest_depth_vertical_m_control": 0.067, "candidate_weak_layer_form_control": "FC", "surface_lwc_vol_frac_max_member_p50": 0.0, "status": "ok"}}, {"type": "Feature", "geometry": {"type": "Polygon", "coordinates": [[[-115.69722458644151, 51.2101388648444], [-115.68291240726204, 51.20997863620927], [-115.68265585778977, 51.21896842610748], [-115.69697082284006, 51.21912870590776], [-115.69722458644151, 51.2101388648444]]]}, "properties": {"unit_id": "u001_001", "supported": true, "elevation_m": 2024.2, "slope_deg": 32.5, "aspect_deg": 359.3, "sky_view_factor": 0.914, "land_cover": "open", "unit_resolution_m": 1000.0, "transport_status": "unresolved", "synthetic_inputs": true, "lead_hours": 24, "valid_time": "2026-01-16T00:00:00+00:00", "n_members": 5.0, "hs_vertical_m_control": 1.2587, "hs_vertical_m_p10": 1.2595, "hs_vertical_m_p50": 1.2631, "hs_vertical_m_p90": 1.2711, "swe_kg_m2_horizontal_p50": 340.57, "new_snow_since_init_vertical_m_control": 0.0671, "new_snow_since_init_vertical_m_p50": 0.071, "crust_present_member_fraction": 1.0, "crust_shallowest_depth_vertical_m_control": 0.778, "crust_shallowest_form_control": "MFcr", "candidate_weak_layer_member_fraction": 1.0, "candidate_weak_layer_shallowest_depth_vertical_m_control": 0.067, "candidate_weak_layer_form_control": "FC", "surface_lwc_vol_frac_max_member_p50": 0.0, "status": "ok"}}, {"type": "Feature", "geometry": {"type": "Polygon", "coordinates": [[[-115.68291240726204, 51.20997863620927], [-115.66860036030198, 51.209816657611], [-115.66834102504866, 51.218806395785606], [-115.68265585778977, 51.21896842610748], [-115.68291240726204, 51.20997863620927]]]}, "properties": {"unit_id": "u001_002", "supported": true, "elevation_m": 2034.3, "slope_deg": 33.5, "aspect_deg": 360.0, "sky_view_factor": 0.91, "land_cover": "open", "unit_resolution_m": 1000.0, "transport_status": "unresolved", "synthetic_inputs": true, "lead_hours": 24, "valid_time": "2026-01-16T00:00:00+00:00", "n_members": 5.0, "hs_vertical_m_control": 1.2659, "hs_vertical_m_p10": 1.2667, "hs_vertical_m_p50": 1.2706, "hs_vertical_m_p90": 1.28, "swe_kg_m2_horizontal_p50": 341.83, "new_snow_since_init_vertical_m_control": 0.0667, "new_snow_since_init_vertical_m_p50": 0.0709, "crust_present_member_fraction": 1.0, "crust_shallowest_depth_vertical_m_control": 0.781, "crust_shallowest_form_control": "MFcr", "candidate_weak_layer_member_fraction": 1.0, "candidate_weak_layer_shallowest_depth_vertical_m_control": 0.067, "candidate_weak_layer_form_control": "FC", "surface_lwc_vol_frac_max_member_p50": 0.0, "status": "ok"}}, {"type": "Feature", "geometry": {"type": "Polygon", "coordinates": [[[-115.66860036030198, 51.209816657611], [-115.65428844699588, 51.20965292908773], [-115.65402632605227, 51.21864261498029], [-115.66834102504866, 51.218806395785606], [-115.66860036030198, 51.209816657611]]]}, "properties": {"unit_id": "u001_003", "supported": true, "elevation_m": 2023.4, "slope_deg": 32.5, "aspect_deg": 0.5, "sky_view_factor": 0.914, "land_cover": "open", "unit_resolution_m": 1000.0, "transport_status": "unresolved", "synthetic_inputs": true, "lead_hours": 24, "valid_time": "2026-01-16T00:00:00+00:00", "n_members": 5.0, "hs_vertical_m_control": 1.2579, "hs_vertical_m_p10": 1.2587, "hs_vertical_m_p50": 1.2622, "hs_vertical_m_p90": 1.2702, "swe_kg_m2_horizontal_p50": 340.32, "new_snow_since_init_vertical_m_control": 0.0672, "new_snow_since_init_vertical_m_p50": 0.071, "crust_present_member_fraction": 1.0, "crust_shallowest_depth_vertical_m_control": 0.778, "crust_shallowest_form_control": "MFcr", "candidate_weak_layer_member_fraction": 1.0, "candidate_weak_layer_shallowest_depth_vertical_m_control": 0.067, "candidate_weak_layer_form_control": "FC", "surface_lwc_vol_frac_max_member_p50": 0.0, "status": "ok"}}, {"type": "Feature", "geometry": {"type": "Polygon", "coordinates": [[[-115.65428844699588, 51.20965292908773], [-115.6399766687782, 51.209487450677976], [-115.63971176223602, 51.2184770837301], [-115.65402632605227, 51.21864261498029], [-115.65428844699588, 51.20965292908773]]]}, "properties": {"unit_id": "u001_004", "supported": true, "elevation_m": 2019.9, "slope_deg": 32.2, "aspect_deg": 0.3, "sky_view_factor": 0.916, "land_cover": "open", "unit_resolution_m": 1000.0, "transport_status": "unresolved", "synthetic_inputs": true, "lead_hours": 24, "valid_time": "2026-01-16T00:00:00+00:00", "n_members": 5.0, "hs_vertical_m_control": 1.2568, "hs_vertical_m_p10": 1.2576, "hs_vertical_m_p50": 1.26, "hs_vertical_m_p90": 1.2689, "swe_kg_m2_horizontal_p50": 340.5, "new_snow_since_init_vertical_m_control": 0.0673, "new_snow_since_init_vertical_m_p50": 0.0712, "crust_present_member_fraction": 1.0, "crust_shallowest_depth_vertical_m_control": 0.785, "crust_shallowest_form_control": "MFcr", "candidate_weak_layer_member_fraction": 1.0, "candidate_weak_layer_shallowest_depth_vertical_m_control": 0.067, "candidate_weak_layer_form_control": "FC", "surface_lwc_vol_frac_max_member_p50": 0.0, "status": "ok"}}, {"type": "Feature", "geometry": {"type": "Polygon", "coordinates": [[[-115.6399766687782, 51.209487450677976], [-115.62566502708336, 51.20932022242068], [-115.62539733503533, 51.218309802073996], [-115.63971176223602, 51.2184770837301], [-115.6399766687782, 51.209487450677976]]]}, "properties": {"unit_id": "u001_005", "supported": true, "elevation_m": 2020.3, "slope_deg": 31.9, "aspect_deg": 359.9, "sky_view_factor": 0.918, "land_cover": "open", "unit_resolution_m": 1000.0, "transport_status": "unresolved", "synthetic_inputs": true, "lead_hours": 24, "valid_time": "2026-01-16T00:00:00+00:00", "n_members": 5.0, "hs_vertical_m_control": 1.2559, "hs_vertical_m_p10": 1.2567, "hs_vertical_m_p50": 1.2592, "hs_vertical_m_p90": 1.2681, "swe_kg_m2_horizontal_p50": 340.45, "new_snow_since_init_vertical_m_control": 0.0673, "new_snow_since_init_vertical_m_p50": 0.0701, "crust_present_member_fraction": 1.0, "crust_shallowest_depth_vertical_m_control": 0.776, "crust_shallowest_form_control": "MFcr", "candidate_weak_layer_member_fraction": 1.0, "candidate_weak_layer_shallowest_depth_vertical_m_control": 0.067, "candidate_weak_layer_form_control": "FC", "surface_lwc_vol_frac_max_member_p50": 0.0, "status": "ok"}}, {"type": "Feature", "geometry": {"type": "Polygon", "coordinates": [[[-115.62566502708336, 51.20932022242068], [-115.61135352334561, 51.20915124435519], [-115.61108304588542, 51.21814077005135], [-115.62539733503533, 51.218309802073996], [-115.62566502708336, 51.20932022242068]]]}, "properties": {"unit_id": "u001_006", "supported": true, "elevation_m": 2020.9, "slope_deg": 31.9, "aspect_deg": 0.1, "sky_view_factor": 0.918, "land_cover": "open", "unit_resolution_m": 1000.0, "transport_status": "unresolved", "synthetic_inputs": true, "lead_hours": 24, "valid_time": "2026-01-16T00:00:00+00:00", "n_members": 5.0, "hs_vertical_m_control": 1.256, "hs_vertical_m_p10": 1.2568, "hs_vertical_m_p50": 1.2592, "hs_vertical_m_p90": 1.2682, "swe_kg_m2_horizontal_p50": 340.56, "new_snow_since_init_vertical_m_control": 0.0673, "new_snow_since_init_vertical_m_p50": 0.07, "crust_present_member_fraction": 1.0, "crust_shallowest_depth_vertical_m_control": 0.776, "crust_shallowest_form_control": "MFcr", "candidate_weak_layer_member_fraction": 1.0, "candidate_weak_layer_shallowest_depth_vertical_m_control": 0.067, "candidate_weak_layer_form_control": "FC", "surface_lwc_vol_frac_max_member_p50": 0.0, "status": "ok"}}, {"type": "Feature", "geometry": {"type": "Polygon", "coordinates": [[[-115.61135352334561, 51.20915124435519], [-115.59704215899923, 51.20898051652127], [-115.5967688962215, 51.21796998770195], [-115.61108304588542, 51.21814077005135], [-115.61135352334561, 51.20915124435519]]]}, "properties": {"unit_id": "u001_007", "supported": true, "elevation_m": 2092.6, "slope_deg": 36.4, "aspect_deg": 0.1, "sky_view_factor": 0.901, "land_cover": "open", "unit_resolution_m": 1000.0, "transport_status": "unresolved", "synthetic_inputs": true, "lead_hours": 24, "valid_time": "2026-01-16T00:00:00+00:00", "n_members": 5.0, "hs_vertical_m_control": 1.3113, "hs_vertical_m_p10": 1.3126, "hs_vertical_m_p50": 1.3198, "hs_vertical_m_p90": 1.3264, "swe_kg_m2_horizontal_p50": 350.18, "new_snow_since_init_vertical_m_control": 0.0663, "new_snow_since_init_vertical_m_p50": 0.0743, "crust_present_member_fraction": 1.0, "crust_shallowest_depth_vertical_m_control": 0.809, "crust_shallowest_form_control": "MFcr", "candidate_weak_layer_member_fraction": 1.0, "candidate_weak_layer_shallowest_depth_vertical_m_control": 0.066, "candidate_weak_layer_form_control": "FC", "surface_lwc_vol_frac_max_member_p50": 0.0, "status": "ok"}}, {"type": "Feature", "geometry": {"type": "Polygon", "coordinates": [[[-115.71178774469749, 51.20130743703499], [-115.69747821925819, 51.20114900898778], [-115.69722458644151, 51.2101388648444], [-115.71153689640572, 51.21029734347869], [-115.71178774469749, 51.20130743703499]]]}, "properties": {"unit_id": "u002_000", "supported": true, "elevation_m": 2777.0, "slope_deg": 22.4, "aspect_deg": 359.9, "sky_view_factor": 0.961, "land_cover": "open", "unit_resolution_m": 1000.0, "transport_status": "unresolved", "synthetic_inputs": true, "lead_hours": 24, "valid_time": "2026-01-16T00:00:00+00:00", "n_members": 5.0, "hs_vertical_m_control": 1.4524, "hs_vertical_m_p10": 1.4576, "hs_vertical_m_p50": 1.4712, "hs_vertical_m_p90": 1.4757, "swe_kg_m2_horizontal_p50": 365.52, "new_snow_since_init_vertical_m_control": 0.0842, "new_snow_since_init_vertical_m_p50": 0.1033, "crust_present_member_fraction": 0.0, "crust_shallowest_depth_vertical_m_control": null, "crust_shallowest_form_control": null, "candidate_weak_layer_member_fraction": 1.0, "candidate_weak_layer_shallowest_depth_vertical_m_control": 0.413, "candidate_weak_layer_form_control": "FCxr", "surface_lwc_vol_frac_max_member_p50": 0.0, "status": "ok"}}, {"type": "Feature", "geometry": {"type": "Polygon", "coordinates": [[[-115.69747821925819, 51.20114900898778], [-115.6831688245149, 51.20098883149799], [-115.68291240726204, 51.20997863620927], [-115.69722458644151, 51.2101388648444], [-115.69747821925819, 51.20114900898778]]]}, "properties": {"unit_id": "u002_001", "supported": true, "elevation_m": 2824.0, "slope_deg": 28.1, "aspect_deg": 345.2, "sky_view_factor": 0.94, "land_cover": "open", "unit_resolution_m": 1000.0, "transport_status": "unresolved", "synthetic_inputs": true, "lead_hours": 24, "valid_time": "2026-01-16T00:00:00+00:00", "n_members": 5.0, "hs_vertical_m_control": 1.4818, "hs_vertical_m_p10": 1.4857, "hs_vertical_m_p50": 1.494, "hs_vertical_m_p90": 1.5024, "swe_kg_m2_horizontal_p50": 365.44, "new_snow_since_init_vertical_m_control": 0.089, "new_snow_since_init_vertical_m_p50": 0.1014, "crust_present_member_fraction": 0.0, "crust_shallowest_depth_vertical_m_control": null, "crust_shallowest_form_control": null, "candidate_weak_layer_member_fraction": 1.0, "candidate_weak_layer_shallowest_depth_vertical_m_control": 0.424, "candidate_weak_layer_form_control": "FCxr", "surface_lwc_vol_frac_max_member_p50": 0.0, "status": "ok"}}, {"type": "Feature", "geometry": {"type": "Polygon", "coordinates": [[[-115.6831688245149, 51.20098883149799], [-115.66885956190131, 51.200826904603296], [-115.66860036030198, 51.209816657611], [-115.68291240726204, 51.20997863620927], [-115.6831688245149, 51.20098883149799]]]}, "properties": {"unit_id": "u002_002", "supported": true, "elevation_m": 2953.1, "slope_deg": 38.9, "aspect_deg": 360.0, "sky_view_factor": 0.889, "land_cover": "open", "unit_resolution_m": 1000.0, "transport_status": "unresolved", "synthetic_inputs": true, "lead_hours": 24, "valid_time": "2026-01-16T00:00:00+00:00", "n_members": 5.0, "hs_vertical_m_control": 1.5516, "hs_vertical_m_p10": 1.554, "hs_vertical_m_p50": 1.5635, "hs_vertical_m_p90": 1.5726, "swe_kg_m2_horizontal_p50": 364.82, "new_snow_since_init_vertical_m_control": 0.093, "new_snow_since_init_vertical_m_p50": 0.1052, "crust_present_member_fraction": 0.0, "crust_shallowest_depth_vertical_m_control": null, "crust_shallowest_form_control": null, "candidate_weak_layer_member_fraction": 1.0, "candidate_weak_layer_shallowest_depth_vertical_m_control": 0.359, "candidate_weak_layer_form_control": "FC", "surface_lwc_vol_frac_max_member_p50": 0.0, "status": "ok"}}, {"type": "Feature", "geometry": {"type": "Polygon", "coordinates": [[[-115.66885956190131, 51.200826904603296], [-115.65455043285104, 51.2006632283418], [-115.65428844699588, 51.20965292908773], [-115.66860036030198, 51.209816657611], [-115.66885956190131, 51.200826904603296]]]}, "properties": {"unit_id": "u002_003", "supported": true, "elevation_m": 2822.3, "slope_deg": 27.9, "aspect_deg": 14.5, "sky_view_factor": 0.941, "land_cover": "open", "unit_resolution_m": 1000.0, "transport_status": "unresolved", "synthetic_inputs": true, "lead_hours": 24, "valid_time": "2026-01-16T00:00:00+00:00", "n_members": 5.0, "hs_vertical_m_control": 1.4813, "hs_vertical_m_p10": 1.4852, "hs_vertical_m_p50": 1.4935, "hs_vertical_m_p90": 1.5019, "swe_kg_m2_horizontal_p50": 365.42, "new_snow_since_init_vertical_m_control": 0.0889, "new_snow_since_init_vertical_m_p50": 0.1014, "crust_present_member_fraction": 0.0, "crust_shallowest_depth_vertical_m_control": null, "crust_shallowest_form_control": null, "candidate_weak_layer_member_fraction": 1.0, "candidate_weak_layer_shallowest_depth_vertical_m_control": 0.424, "candidate_weak_layer_form_control": "FCxr", "surface_lwc_vol_frac_max_member_p50": 0.0, "status": "ok"}}, {"type": "Feature", "geometry": {"type": "Polygon", "coordinates": [[[-115.65455043285104, 51.2006632283418], [-115.64024143879753, 51.200497802752004], [-115.6399766687782, 51.209487450677976], [-115.65428844699588, 51.20965292908773], [-115.65455043285104, 51.2006632283418]]]}, "properties": {"unit_id": "u002_004", "supported": true, "elevation_m": 2777.6, "slope_deg": 22.6, "aspect_deg": 0.4, "sky_view_factor": 0.961, "land_cover": "open", "unit_resolution_m": 1000.0, "transport_status": "unresolved", "synthetic_inputs": true, "lead_hours": 24, "valid_time": "2026-01-16T00:00:00+00:00", "n_members": 5.0, "hs_vertical_m_control": 1.4528, "hs_vertical_m_p10": 1.458, "hs_vertical_m_p50": 1.4716, "hs_vertical_m_p90": 1.476, "swe_kg_m2_horizontal_p50": 365.52, "new_snow_since_init_vertical_m_control": 0.0842, "new_snow_since_init_vertical_m_p50": 0.1033, "crust_present_member_fraction": 0.0, "crust_shallowest_depth_vertical_m_control": null, "crust_shallowest_form_control": null, "candidate_weak_layer_member_fraction": 1.0, "candidate_weak_layer_shallowest_depth_vertical_m_control": 0.413, "candidate_weak_layer_form_control": "FCxr", "surface_lwc_vol_frac_max_member_p50": 0.0, "status": "ok"}}, {"type": "Feature", "geometry": {"type": "Polygon", "coordinates": [[[-115.64024143879753, 51.200497802752004], [-115.62593258117424, 51.20033062787282], [-115.62566502708336, 51.20932022242068], [-115.6399766687782, 51.209487450677976], [-115.64024143879753, 51.200497802752004]]]}, "properties": {"unit_id": "u002_005", "supported": true, "elevation_m": 2776.6, "slope_deg": 22.4, "aspect_deg": 0.1, "sky_view_factor": 0.962, "land_cover": "open", "unit_resolution_m": 1000.0, "transport_status": "unresolved", "synthetic_inputs": true, "lead_hours": 24, "valid_time": "2026-01-16T00:00:00+00:00", "n_members": 5.0, "hs_vertical_m_control": 1.4523, "hs_vertical_m_p10": 1.4575, "hs_vertical_m_p50": 1.4711, "hs_vertical_m_p90": 1.4756, "swe_kg_m2_horizontal_p50": 365.55, "new_snow_since_init_vertical_m_control": 0.0842, "new_snow_since_init_vertical_m_p50": 0.1033, "crust_present_member_fraction": 0.0, "crust_shallowest_depth_vertical_m_control": null, "crust_shallowest_form_control": null, "candidate_weak_layer_member_fraction": 1.0, "candidate_weak_layer_shallowest_depth_vertical_m_control": 0.413, "candidate_weak_layer_form_control": "FCxr", "surface_lwc_vol_frac_max_member_p50": 0.0, "status": "ok"}}, {"type": "Feature", "geometry": {"type": "Polygon", "coordinates": [[[-115.62593258117424, 51.20033062787282], [-115.61162386141444, 51.20016170374359], [-115.61135352334561, 51.20915124435519], [-115.62566502708336, 51.20932022242068], [-115.62593258117424, 51.20033062787282]]]}, "properties": {"unit_id": "u002_006", "supported": true, "elevation_m": 2777.7, "slope_deg": 22.7, "aspect_deg": 0.0, "sky_view_factor": 0.961, "land_cover": "open", "unit_resolution_m": 1000.0, "transport_status": "unresolved", "synthetic_inputs": true, "lead_hours": 24, "valid_time": "2026-01-16T00:00:00+00:00", "n_members": 5.0, "hs_vertical_m_control": 1.4534, "hs_vertical_m_p10": 1.4586, "hs_vertical_m_p50": 1.4723, "hs_vertical_m_p90": 1.4766, "swe_kg_m2_horizontal_p50": 365.57, "new_snow_since_init_vertical_m_control": 0.0842, "new_snow_since_init_vertical_m_p50": 0.1034, "crust_present_member_fraction": 0.0, "crust_shallowest_depth_vertical_m_control": null, "crust_shallowest_form_control": null, "candidate_weak_layer_member_fraction": 1.0, "candidate_weak_layer_shallowest_depth_vertical_m_control": 0.414, "candidate_weak_layer_form_control": "FCxr", "surface_lwc_vol_frac_max_member_p50": 0.0, "status": "ok"}}, {"type": "Feature", "geometry": {"type": "Polygon", "coordinates": [[[-115.61162386141444, 51.20016170374359], [-115.59731528095148, 51.199991030404036], [-115.59704215899923, 51.20898051652127], [-115.61135352334561, 51.20915124435519], [-115.61162386141444, 51.20016170374359]]]}, "properties": {"unit_id": "u002_007", "supported": true, "elevation_m": 2776.0, "slope_deg": 22.4, "aspect_deg": 0.2, "sky_view_factor": 0.962, "land_cover": "open", "unit_resolution_m": 1000.0, "transport_status": "unresolved", "synthetic_inputs": true, "lead_hours": 24, "valid_time": "2026-01-16T00:00:00+00:00", "n_members": 5.0, "hs_vertical_m_control": 1.4526, "hs_vertical_m_p10": 1.4578, "hs_vertical_m_p50": 1.4714, "hs_vertical_m_p90": 1.4759, "swe_kg_m2_horizontal_p50": 365.55, "new_snow_since_init_vertical_m_control": 0.0842, "new_snow_since_init_vertical_m_p50": 0.1033, "crust_present_member_fraction": 0.0, "crust_shallowest_depth_vertical_m_control": null, "crust_shallowest_form_control": null, "candidate_weak_layer_member_fraction": 1.0, "candidate_weak_layer_shallowest_depth_vertical_m_control": 0.413, "candidate_weak_layer_form_control": "FCxr", "surface_lwc_vol_frac_max_member_p50": 0.0, "status": "ok"}}, {"type": "Feature", "geometry": {"type": "Polygon", "coordinates": [[[-115.71203846372693, 51.19231751581732], [-115.6977317213788, 51.1921591383376], [-115.69747821925819, 51.20114900898778], [-115.71178774469749, 51.20130743703499], [-115.71203846372693, 51.19231751581732]]]}, "properties": {"unit_id": "u003_000", "supported": true, "elevation_m": 2471.5, "slope_deg": 41.1, "aspect_deg": 181.3, "sky_view_factor": 0.859, "land_cover": "open", "unit_resolution_m": 1000.0, "transport_status": "unresolved", "synthetic_inputs": true, "lead_hours": 24, "valid_time": "2026-01-16T00:00:00+00:00", "n_members": 5.0, "hs_vertical_m_control": 1.4101, "hs_vertical_m_p10": 1.4131, "hs_vertical_m_p50": 1.4189, "hs_vertical_m_p90": 1.4348, "swe_kg_m2_horizontal_p50": 343.94, "new_snow_since_init_vertical_m_control": 0.0784, "new_snow_since_init_vertical_m_p50": 0.087, "crust_present_member_fraction": 1.0, "crust_shallowest_depth_vertical_m_control": 1.111, "crust_shallowest_form_control": "MFcr", "candidate_weak_layer_member_fraction": 1.0, "candidate_weak_layer_shallowest_depth_vertical_m_control": 0.078, "candidate_weak_layer_form_control": "DH", "surface_lwc_vol_frac_max_member_p50": 0.0, "status": "ok"}}, {"type": "Feature", "geometry": {"type": "Polygon", "coordinates": [[[-115.6977317213788, 51.1921591383376], [-115.68342510963805, 51.19199901197332], [-115.6831688245149, 51.20098883149799], [-115.69747821925819, 51.20114900898778], [-115.6977317213788, 51.1921591383376]]]}, "properties": {"unit_id": "u003_001", "supported": true, "elevation_m": 2635.8, "slope_deg": 41.8, "aspect_deg": 209.9, "sky_view_factor": 0.851, "land_cover": "open", "unit_resolution_m": 1000.0, "transport_status": "unresolved", "synthetic_inputs": true, "lead_hours": 24, "valid_time": "2026-01-16T00:00:00+00:00", "n_members": 5.0, "hs_vertical_m_control": 1.441, "hs_vertical_m_p10": 1.4458, "hs_vertical_m_p50": 1.4589, "hs_vertical_m_p90": 1.4635, "swe_kg_m2_horizontal_p50": 343.21, "new_snow_since_init_vertical_m_control": 0.0818, "new_snow_since_init_vertical_m_p50": 0.0997, "crust_present_member_fraction": 1.0, "crust_shallowest_depth_vertical_m_control": 1.369, "crust_shallowest_form_control": "MFcr", "candidate_weak_layer_member_fraction": 1.0, "candidate_weak_layer_shallowest_depth_vertical_m_control": 0.082, "candidate_weak_layer_form_control": "FC", "surface_lwc_vol_frac_max_member_p50": 0.0, "status": "ok"}}, {"type": "Feature", "geometry": {"type": "Polygon", "coordinates": [[[-115.68342510963805, 51.19199901197332], [-115.66911862993739, 51.191837136762175], [-115.66885956190131, 51.200826904603296], [-115.6831688245149, 51.20098883149799], [-115.68342510963805, 51.19199901197332]]]}, "properties": {"unit_id": "u003_002", "supported": true, "elevation_m": 3115.4, "slope_deg": 25.5, "aspect_deg": 180.0, "sky_view_factor": 0.95, "land_cover": "open", "unit_resolution_m": 1000.0, "transport_status": "unresolved", "synthetic_inputs": true, "lead_hours": 24, "valid_time": "2026-01-16T00:00:00+00:00", "n_members": 5.0, "hs_vertical_m_control": 1.4429, "hs_vertical_m_p10": 1.4456, "hs_vertical_m_p50": 1.4506, "hs_vertical_m_p90": 1.4603, "swe_kg_m2_horizontal_p50": 358.7, "new_snow_since_init_vertical_m_control": 0.1018, "new_snow_since_init_vertical_m_p50": 0.1098, "crust_present_member_fraction": 1.0, "crust_shallowest_depth_vertical_m_control": 1.395, "crust_shallowest_form_control": "MFcr", "candidate_weak_layer_member_fraction": 1.0, "candidate_weak_layer_shallowest_depth_vertical_m_control": 0.387, "candidate_weak_layer_form_control": "FC", "surface_lwc_vol_frac_max_member_p50": 0.0, "status": "ok"}}, {"type": "Feature", "geometry": {"type": "Polygon", "coordinates": [[[-115.66911862993739, 51.191837136762175], [-115.6548122837094, 51.19167351274221], [-115.65455043285104, 51.2006632283418], [-115.66885956190131, 51.200826904603296], [-115.66911862993739, 51.191837136762175]]]}, "properties": {"unit_id": "u003_003", "supported": true, "elevation_m": 2635.4, "slope_deg": 41.7, "aspect_deg": 150.0, "sky_view_factor": 0.844, "land_cover": "open", "unit_resolution_m": 1000.0, "transport_status": "unresolved", "synthetic_inputs": true, "lead_hours": 24, "valid_time": "2026-01-16T00:00:00+00:00", "n_members": 5.0, "hs_vertical_m_control": 1.4412, "hs_vertical_m_p10": 1.446, "hs_vertical_m_p50": 1.4592, "hs_vertical_m_p90": 1.4638, "swe_kg_m2_horizontal_p50": 343.66, "new_snow_since_init_vertical_m_control": 0.0817, "new_snow_since_init_vertical_m_p50": 0.0998, "crust_present_member_fraction": 1.0, "crust_shallowest_depth_vertical_m_control": 1.354, "crust_shallowest_form_control": "MFcr", "candidate_weak_layer_member_fraction": 1.0, "candidate_weak_layer_shallowest_depth_vertical_m_control": 0.082, "candidate_weak_layer_form_control": "FC", "surface_lwc_vol_frac_max_member_p50": 0.0, "status": "ok"}}, {"type": "Feature", "geometry": {"type": "Polygon", "coordinates": [[[-115.6548122837094, 51.19167351274221], [-115.64050607238664, 51.1915081399519], [-115.64024143879753, 51.200497802752004], [-115.65455043285104, 51.2006632283418], [-115.6548122837094, 51.19167351274221]]]}, "properties": {"unit_id": "u003_004", "supported": true, "elevation_m": 2469.3, "slope_deg": 41.1, "aspect_deg": 179.0, "sky_view_factor": 0.859, "land_cover": "open", "unit_resolution_m": 1000.0, "transport_status": "unresolved", "synthetic_inputs": true, "lead_hours": 24, "valid_time": "2026-01-16T00:00:00+00:00", "n_members": 5.0, "hs_vertical_m_control": 1.4087, "hs_vertical_m_p10": 1.4117, "hs_vertical_m_p50": 1.4175, "hs_vertical_m_p90": 1.4333, "swe_kg_m2_horizontal_p50": 343.97, "new_snow_since_init_vertical_m_control": 0.0784, "new_snow_since_init_vertical_m_p50": 0.087, "crust_present_member_fraction": 1.0, "crust_shallowest_depth_vertical_m_control": 1.11, "crust_shallowest_form_control": "MFcr", "candidate_weak_layer_member_fraction": 1.0, "candidate_weak_layer_shallowest_depth_vertical_m_control": 0.078, "candidate_weak_layer_form_control": "DH", "surface_lwc_vol_frac_max_member_p50": 0.0, "status": "ok"}}, {"type": "Feature", "geometry": {"type": "Polygon", "coordinates": [[[-115.64050607238664, 51.1915081399519], [-115.62619999740156, 51.191341018430165], [-115.62593258117424, 51.20033062787282], [-115.64024143879753, 51.200497802752004], [-115.64050607238664, 51.1915081399519]]]}, "properties": {"unit_id": "u003_005", "supported": true, "elevation_m": 2468.3, "slope_deg": 41.1, "aspect_deg": 180.0, "sky_view_factor": 0.868, "land_cover": "open", "unit_resolution_m": 1000.0, "transport_status": "unresolved", "synthetic_inputs": true, "lead_hours": 24, "valid_time": "2026-01-16T00:00:00+00:00", "n_members": 5.0, "hs_vertical_m_control": 1.4099, "hs_vertical_m_p10": 1.4129, "hs_vertical_m_p50": 1.4187, "hs_vertical_m_p90": 1.4346, "swe_kg_m2_horizontal_p50": 343.54, "new_snow_since_init_vertical_m_control": 0.0783, "new_snow_since_init_vertical_m_p50": 0.0869, "crust_present_member_fraction": 1.0, "crust_shallowest_depth_vertical_m_control": 1.111, "crust_shallowest_form_control": "MFcr", "candidate_weak_layer_member_fraction": 1.0, "candidate_weak_layer_shallowest_depth_vertical_m_control": 0.078, "candidate_weak_layer_form_control": "DH", "surface_lwc_vol_frac_max_member_p50": 0.0, "status": "ok"}}, {"type": "Feature", "geometry": {"type": "Polygon", "coordinates": [[[-115.62619999740156, 51.191341018430165], [-115.61189406018651, 51.19117214821629], [-115.61162386141444, 51.20016170374359], [-115.62593258117424, 51.20033062787282], [-115.62619999740156, 51.191341018430165]]]}, "properties": {"unit_id": "u003_006", "supported": true, "elevation_m": 2467.6, "slope_deg": 41.1, "aspect_deg": 180.0, "sky_view_factor": 0.871, "land_cover": "open", "unit_resolution_m": 1000.0, "transport_status": "unresolved", "synthetic_inputs": true, "lead_hours": 24, "valid_time": "2026-01-16T00:00:00+00:00", "n_members": 5.0, "hs_vertical_m_control": 1.41, "hs_vertical_m_p10": 1.413, "hs_vertical_m_p50": 1.4188, "hs_vertical_m_p90": 1.4346, "swe_kg_m2_horizontal_p50": 343.53, "new_snow_since_init_vertical_m_control": 0.0784, "new_snow_since_init_vertical_m_p50": 0.087, "crust_present_member_fraction": 1.0, "crust_shallowest_depth_vertical_m_control": 1.111, "crust_shallowest_form_control": "MFcr", "candidate_weak_layer_member_fraction": 1.0, "candidate_weak_layer_shallowest_depth_vertical_m_control": 0.078, "candidate_weak_layer_form_control": "DH", "surface_lwc_vol_frac_max_member_p50": 0.0, "status": "ok"}}, {"type": "Feature", "geometry": {"type": "Polygon", "coordinates": [[[-115.61189406018651, 51.19117214821629], [-115.59758826217374, 51.19100152934999], [-115.59731528095148, 51.199991030404036], [-115.61162386141444, 51.20016170374359], [-115.61189406018651, 51.19117214821629]]]}, "properties": {"unit_id": "u003_007", "supported": true, "elevation_m": 2467.2, "slope_deg": 41.1, "aspect_deg": 180.2, "sky_view_factor": 0.873, "land_cover": "open", "unit_resolution_m": 1000.0, "transport_status": "unresolved", "synthetic_inputs": true, "lead_hours": 24, "valid_time": "2026-01-16T00:00:00+00:00", "n_members": 5.0, "hs_vertical_m_control": 1.4107, "hs_vertical_m_p10": 1.4137, "hs_vertical_m_p50": 1.4195, "hs_vertical_m_p90": 1.4353, "swe_kg_m2_horizontal_p50": 343.56, "new_snow_since_init_vertical_m_control": 0.0783, "new_snow_since_init_vertical_m_p50": 0.0869, "crust_present_member_fraction": 1.0, "crust_shallowest_depth_vertical_m_control": 1.111, "crust_shallowest_form_control": "MFcr", "candidate_weak_layer_member_fraction": 1.0, "candidate_weak_layer_shallowest_depth_vertical_m_control": 0.078, "candidate_weak_layer_form_control": "DH", "surface_lwc_vol_frac_max_member_p50": 0.0, "status": "ok"}}, {"type": "Feature", "geometry": {"type": "Polygon", "coordinates": [[[-115.71228905358178, 51.1833275798253], [-115.69798509289204, 51.18316925289347], [-115.6977317213788, 51.1921591383376], [-115.71203846372693, 51.19231751581732], [-115.71228905358178, 51.1833275798253]]]}, "properties": {"unit_id": "u004_000", "supported": true, "elevation_m": 1740.1, "slope_deg": 20.6, "aspect_deg": 183.8, "sky_view_factor": 0.894, "land_cover": "open", "unit_resolution_m": 1000.0, "transport_status": "unresolved", "synthetic_inputs": true, "lead_hours": 24, "valid_time": "2026-01-16T00:00:00+00:00", "n_members": 5.0, "hs_vertical_m_control": 0.9832, "hs_vertical_m_p10": 0.9722, "hs_vertical_m_p50": 0.9778, "hs_vertical_m_p90": 0.9828, "swe_kg_m2_horizontal_p50": 259.95, "new_snow_since_init_vertical_m_control": 0.0749, "new_snow_since_init_vertical_m_p50": 0.0691, "crust_present_member_fraction": 1.0, "crust_shallowest_depth_vertical_m_control": 0.723, "crust_shallowest_form_control": "MFcr", "candidate_weak_layer_member_fraction": 1.0, "candidate_weak_layer_shallowest_depth_vertical_m_control": 0.075, "candidate_weak_layer_form_control": "FC", "surface_lwc_vol_frac_max_member_p50": 0.0, "status": "ok"}}, {"type": "Feature", "geometry": {"type": "Polygon", "coordinates": [[[-115.69798509289204, 51.18316925289347], [-115.6836812627211, 51.18300917763493], [-115.68342510963805, 51.19199901197332], [-115.6977317213788, 51.1921591383376], [-115.69798509289204, 51.18316925289347]]]}, "properties": {"unit_id": "u004_001", "supported": true, "elevation_m": 1950.1, "slope_deg": 33.6, "aspect_deg": 235.3, "sky_view_factor": 0.86, "land_cover": "open", "unit_resolution_m": 1000.0, "transport_status": "unresolved", "synthetic_inputs": true, "lead_hours": 24, "valid_time": "2026-01-16T00:00:00+00:00", "n_members": 5.0, "hs_vertical_m_control": 1.1963, "hs_vertical_m_p10": 1.1959, "hs_vertical_m_p50": 1.1966, "hs_vertical_m_p90": 1.2012, "swe_kg_m2_horizontal_p50": 325.9, "new_snow_since_init_vertical_m_control": 0.0703, "new_snow_since_init_vertical_m_p50": 0.0708, "crust_present_member_fraction": 1.0, "crust_shallowest_depth_vertical_m_control": 0.773, "crust_shallowest_form_control": "MFcr", "candidate_weak_layer_member_fraction": 1.0, "candidate_weak_layer_shallowest_depth_vertical_m_control": 0.07, "candidate_weak_layer_form_control": "FCxr", "surface_lwc_vol_frac_max_member_p50": 0.0, "status": "ok"}}, {"type": "Feature", "geometry": {"type": "Polygon", "coordinates": [[[-115.6836812627211, 51.18300917763493], [-115.66937756450073, 51.182847354087286], [-115.66911862993739, 51.191837136762175], [-115.68342510963805, 51.19199901197332], [-115.6836812627211, 51.18300917763493]]]}, "properties": {"unit_id": "u004_002", "supported": true, "elevation_m": 2552.2, "slope_deg": 19.5, "aspect_deg": 179.6, "sky_view_factor": 0.968, "land_cover": "open", "unit_resolution_m": 1000.0, "transport_status": "unresolved", "synthetic_inputs": true, "lead_hours": 24, "valid_time": "2026-01-16T00:00:00+00:00", "n_members": 5.0, "hs_vertical_m_control": 1.3334, "hs_vertical_m_p10": 1.3378, "hs_vertical_m_p50": 1.3456, "hs_vertical_m_p90": 1.357, "swe_kg_m2_horizontal_p50": 343.58, "new_snow_since_init_vertical_m_control": 0.0792, "new_snow_since_init_vertical_m_p50": 0.0915, "crust_present_member_fraction": 1.0, "crust_shallowest_depth_vertical_m_control": 1.251, "crust_shallowest_form_control": "MFcr", "candidate_weak_layer_member_fraction": 1.0, "candidate_weak_layer_shallowest_depth_vertical_m_control": 0.079, "candidate_weak_layer_form_control": "FC", "surface_lwc_vol_frac_max_member_p50": 0.0, "status": "ok"}}, {"type": "Feature", "geometry": {"type": "Polygon", "coordinates": [[[-115.66937756450073, 51.182847354087286], [-115.65507399966252, 51.18268378228861], [-115.6548122837094, 51.19167351274221], [-115.66911862993739, 51.191837136762175], [-115.66937756450073, 51.182847354087286]]]}, "properties": {"unit_id": "u004_003", "supported": true, "elevation_m": 1951.5, "slope_deg": 33.4, "aspect_deg": 125.0, "sky_view_factor": 0.848, "land_cover": "open", "unit_resolution_m": 1000.0, "transport_status": "unresolved", "synthetic_inputs": true, "lead_hours": 24, "valid_time": "2026-01-16T00:00:00+00:00", "n_members": 5.0, "hs_vertical_m_control": 1.1959, "hs_vertical_m_p10": 1.1956, "hs_vertical_m_p50": 1.1963, "hs_vertical_m_p90": 1.2009, "swe_kg_m2_horizontal_p50": 326.06, "new_snow_since_init_vertical_m_control": 0.0703, "new_snow_since_init_vertical_m_p50": 0.0709, "crust_present_member_fraction": 1.0, "crust_shallowest_depth_vertical_m_control": 0.758, "crust_shallowest_form_control": "MFcr", "candidate_weak_layer_member_fraction": 1.0, "candidate_weak_layer_shallowest_depth_vertical_m_control": 0.07, "candidate_weak_layer_form_control": "FCxr", "surface_lwc_vol_frac_max_member_p50": 0.0, "status": "ok"}}, {"type": "Feature", "geometry": {"type": "Polygon", "coordinates": [[[-115.65507399966252, 51.18268378228861], [-115.64077056963808, 51.18251846227737], [-115.64050607238664, 51.1915081399519], [-115.6548122837094, 51.19167351274221], [-115.65507399966252, 51.18268378228861]]]}, "properties": {"unit_id": "u004_004", "supported": true, "elevation_m": 1741.1, "slope_deg": 20.6, "aspect_deg": 177.0, "sky_view_factor": 0.887, "land_cover": "open", "unit_resolution_m": 1000.0, "transport_status": "unresolved", "synthetic_inputs": true, "lead_hours": 24, "valid_time": "2026-01-16T00:00:00+00:00", "n_members": 5.0, "hs_vertical_m_control": 0.9826, "hs_vertical_m_p10": 0.9716, "hs_vertical_m_p50": 0.9772, "hs_vertical_m_p90": 0.9822, "swe_kg_m2_horizontal_p50": 259.98, "new_snow_since_init_vertical_m_control": 0.0748, "new_snow_since_init_vertical_m_p50": 0.0691, "crust_present_member_fraction": 1.0, "crust_shallowest_depth_vertical_m_control": 0.716, "crust_shallowest_form_control": "MFcr", "candidate_weak_layer_member_fraction": 1.0, "candidate_weak_layer_shallowest_depth_vertical_m_control": 0.075, "candidate_weak_layer_form_control": "FC", "surface_lwc_vol_frac_max_member_p50": 0.0, "status": "ok"}}, {"type": "Feature", "geometry": {"type": "Polygon", "coordinates": [[[-115.64077056963808, 51.18251846227737], [-115.62646727585886, 51.1823513940924], [-115.62619999740156, 51.191341018430165], [-115.64050607238664, 51.1915081399519], [-115.64077056963808, 51.18251846227737]]]}, "properties": {"unit_id": "u004_005", "supported": true, "elevation_m": 1737.9, "slope_deg": 20.8, "aspect_deg": 179.3, "sky_view_factor": 0.914, "land_cover": "open", "unit_resolution_m": 1000.0, "transport_status": "unresolved", "synthetic_inputs": true, "lead_hours": 24, "valid_time": "2026-01-16T00:00:00+00:00", "n_members": 5.0, "hs_vertical_m_control": 0.9825, "hs_vertical_m_p10": 0.9714, "hs_vertical_m_p50": 0.977, "hs_vertical_m_p90": 0.9821, "swe_kg_m2_horizontal_p50": 259.73, "new_snow_since_init_vertical_m_control": 0.075, "new_snow_since_init_vertical_m_p50": 0.0691, "crust_present_member_fraction": 1.0, "crust_shallowest_depth_vertical_m_control": 0.722, "crust_shallowest_form_control": "MFcr", "candidate_weak_layer_member_fraction": 1.0, "candidate_weak_layer_shallowest_depth_vertical_m_control": 0.075, "candidate_weak_layer_form_control": "FC", "surface_lwc_vol_frac_max_member_p50": 0.0, "status": "ok"}}, {"type": "Feature", "geometry": {"type": "Polygon", "coordinates": [[[-115.62646727585886, 51.1823513940924], [-115.61216411975624, 51.18218257777301], [-115.61189406018651, 51.19117214821629], [-115.62619999740156, 51.191341018430165], [-115.62646727585886, 51.1823513940924]]]}, "properties": {"unit_id": "u004_006", "supported": true, "elevation_m": 1738.9, "slope_deg": 20.8, "aspect_deg": 180.8, "sky_view_factor": 0.921, "land_cover": "open", "unit_resolution_m": 1000.0, "transport_status": "unresolved", "synthetic_inputs": true, "lead_hours": 24, "valid_time": "2026-01-16T00:00:00+00:00", "n_members": 5.0, "hs_vertical_m_control": 0.9837, "hs_vertical_m_p10": 0.9725, "hs_vertical_m_p50": 0.9781, "hs_vertical_m_p90": 0.9833, "swe_kg_m2_horizontal_p50": 259.97, "new_snow_since_init_vertical_m_control": 0.075, "new_snow_since_init_vertical_m_p50": 0.069, "crust_present_member_fraction": 1.0, "crust_shallowest_depth_vertical_m_control": 0.723, "crust_shallowest_form_control": "MFcr", "candidate_weak_layer_member_fraction": 1.0, "candidate_weak_layer_shallowest_depth_vertical_m_control": 0.075, "candidate_weak_layer_form_control": "FC", "surface_lwc_vol_frac_max_member_p50": 0.0, "status": "ok"}}, {"type": "Feature", "geometry": {"type": "Polygon", "coordinates": [[[-115.61216411975624, 51.18218257777301], [-115.59786110276153, 51.18201201335887], [-115.59758826217374, 51.19100152934999], [-115.61189406018651, 51.19117214821629], [-115.61216411975624, 51.18218257777301]]]}, "properties": {"unit_id": "u004_007", "supported": true, "elevation_m": 1736.0, "slope_deg": 21.2, "aspect_deg": 179.3, "sky_view_factor": 0.934, "land_cover": "open", "unit_resolution_m": 1000.0, "transport_status": "unresolved", "synthetic_inputs": true, "lead_hours": 24, "valid_time": "2026-01-16T00:00:00+00:00", "n_members": 5.0, "hs_vertical_m_control": 0.9939, "hs_vertical_m_p10": 0.9827, "hs_vertical_m_p50": 0.9883, "hs_vertical_m_p90": 0.9935, "swe_kg_m2_horizontal_p50": 263.78, "new_snow_since_init_vertical_m_control": 0.0751, "new_snow_since_init_vertical_m_p50": 0.0691, "crust_present_member_fraction": 1.0, "crust_shallowest_depth_vertical_m_control": 0.724, "crust_shallowest_form_control": "MFcr", "candidate_weak_layer_member_fraction": 1.0, "candidate_weak_layer_shallowest_depth_vertical_m_control": 0.075, "candidate_weak_layer_form_control": "FC", "surface_lwc_vol_frac_max_member_p50": 0.0, "status": "ok"}}, {"type": "Feature", "geometry": {"type": "Polygon", "coordinates": [[[-115.71253951434963, 51.17433762905858], [-115.69823833388645, 51.174179352655074], [-115.69798509289204, 51.18316925289347], [-115.71228905358178, 51.1833275798253], [-115.71253951434963, 51.17433762905858]]]}, "properties": {"unit_id": "u005_000", "supported": false, "elevation_m": 1572.6, "slope_deg": 3.2, "aspect_deg": 205.4, "sky_view_factor": 0.924, "land_cover": "forest", "unit_resolution_m": 1000.0, "transport_status": "unresolved", "synthetic_inputs": true, "lead_hours": 24, "valid_time": "2026-01-16T00:00:00+00:00", "n_members": null, "hs_vertical_m_control": null, "hs_vertical_m_p10": null, "hs_vertical_m_p50": null, "hs_vertical_m_p90": null, "swe_kg_m2_horizontal_p50": null, "new_snow_since_init_vertical_m_control": null, "new_snow_since_init_vertical_m_p50": null, "crust_present_member_fraction": null, "crust_shallowest_depth_vertical_m_control": null, "crust_shallowest_form_control": null, "candidate_weak_layer_member_fraction": null, "candidate_weak_layer_shallowest_depth_vertical_m_control": null, "candidate_weak_layer_form_control": null, "surface_lwc_vol_frac_max_member_p50": null, "status": "unsupported: forest canopy: SNOWPACK canopy module not enabled/validated (CANOPY=FALSE)"}}, {"type": "Feature", "geometry": {"type": "Polygon", "coordinates": [[[-115.69823833388645, 51.174179352655074], [-115.68393728385361, 51.17401932848246], [-115.6836812627211, 51.18300917763493], [-115.69798509289204, 51.18316925289347], [-115.69823833388645, 51.174179352655074]]]}, "properties": {"unit_id": "u005_001", "supported": true, "elevation_m": 1784.4, "slope_deg": 28.5, "aspect_deg": 265.1, "sky_view_factor": 0.89, "land_cover": "open", "unit_resolution_m": 1000.0, "transport_status": "unresolved", "synthetic_inputs": true, "lead_hours": 24, "valid_time": "2026-01-16T00:00:00+00:00", "n_members": 5.0, "hs_vertical_m_control": 1.0985, "hs_vertical_m_p10": 1.0894, "hs_vertical_m_p50": 1.0924, "hs_vertical_m_p90": 1.0969, "swe_kg_m2_horizontal_p50": 296.73, "new_snow_since_init_vertical_m_control": 0.0754, "new_snow_since_init_vertical_m_p50": 0.0689, "crust_present_member_fraction": 1.0, "crust_shallowest_depth_vertical_m_control": 0.737, "crust_shallowest_form_control": "MFcr", "candidate_weak_layer_member_fraction": 1.0, "candidate_weak_layer_shallowest_depth_vertical_m_control": 0.075, "candidate_weak_layer_form_control": "FC", "surface_lwc_vol_frac_max_member_p50": 0.0, "status": "ok"}}, {"type": "Feature", "geometry": {"type": "Polygon", "coordinates": [[[-115.68393728385361, 51.17401932848246], [-115.66963636568187, 51.17385755657834], [-115.66937756450073, 51.182847354087286], [-115.6836812627211, 51.18300917763493], [-115.68393728385361, 51.17401932848246]]]}, "properties": {"unit_id": "u005_002", "supported": true, "elevation_m": 2393.3, "slope_deg": 2.8, "aspect_deg": 184.4, "sky_view_factor": 0.988, "land_cover": "open", "unit_resolution_m": 1000.0, "transport_status": "unresolved", "synthetic_inputs": true, "lead_hours": 24, "valid_time": "2026-01-16T00:00:00+00:00", "n_members": 5.0, "hs_vertical_m_control": 1.3136, "hs_vertical_m_p10": 1.3186, "hs_vertical_m_p50": 1.3273, "hs_vertical_m_p90": 1.3429, "swe_kg_m2_horizontal_p50": 344.47, "new_snow_since_init_vertical_m_control": 0.0704, "new_snow_since_init_vertical_m_p50": 0.0843, "crust_present_member_fraction": 1.0, "crust_shallowest_depth_vertical_m_control": 0.795, "crust_shallowest_form_control": "MFcr", "candidate_weak_layer_member_fraction": 1.0, "candidate_weak_layer_shallowest_depth_vertical_m_control": 0.07, "candidate_weak_layer_form_control": "FCxr", "surface_lwc_vol_frac_max_member_p50": 0.0, "status": "ok"}}, {"type": "Feature", "geometry": {"type": "Polygon", "coordinates": [[[-115.66963636568187, 51.17385755657834], [-115.65533558080189, 51.17369403698075], [-115.65507399966252, 51.18268378228861], [-115.66937756450073, 51.182847354087286], [-115.66963636568187, 51.17385755657834]]]}, "properties": {"unit_id": "u005_003", "supported": true, "elevation_m": 1784.3, "slope_deg": 28.6, "aspect_deg": 94.7, "sky_view_factor": 0.862, "land_cover": "open", "unit_resolution_m": 1000.0, "transport_status": "unresolved", "synthetic_inputs": true, "lead_hours": 24, "valid_time": "2026-01-16T00:00:00+00:00", "n_members": 5.0, "hs_vertical_m_control": 1.095, "hs_vertical_m_p10": 1.086, "hs_vertical_m_p50": 1.0891, "hs_vertical_m_p90": 1.0934, "swe_kg_m2_horizontal_p50": 296.19, "new_snow_since_init_vertical_m_control": 0.0755, "new_snow_since_init_vertical_m_p50": 0.0692, "crust_present_member_fraction": 1.0, "crust_shallowest_depth_vertical_m_control": 0.735, "crust_shallowest_form_control": "MFcr", "candidate_weak_layer_member_fraction": 1.0, "candidate_weak_layer_shallowest_depth_vertical_m_control": 0.075, "candidate_weak_layer_form_control": "FCxr", "surface_lwc_vol_frac_max_member_p50": 0.0, "status": "ok"}}, {"type": "Feature", "geometry": {"type": "Polygon", "coordinates": [[[-115.65533558080189, 51.17369403698075], [-115.64103493064427, 51.17352876972812], [-115.64077056963808, 51.18251846227737], [-115.65507399966252, 51.18268378228861], [-115.65533558080189, 51.17369403698075]]]}, "properties": {"unit_id": "u005_004", "supported": false, "elevation_m": 1574.1, "slope_deg": 3.0, "aspect_deg": 165.2, "sky_view_factor": 0.902, "land_cover": "forest", "unit_resolution_m": 1000.0, "transport_status": "unresolved", "synthetic_inputs": true, "lead_hours": 24, "valid_time": "2026-01-16T00:00:00+00:00", "n_members": null, "hs_vertical_m_control": null, "hs_vertical_m_p10": null, "hs_vertical_m_p50": null, "hs_vertical_m_p90": null, "swe_kg_m2_horizontal_p50": null, "new_snow_since_init_vertical_m_control": null, "new_snow_since_init_vertical_m_p50": null, "crust_present_member_fraction": null, "crust_shallowest_depth_vertical_m_control": null, "crust_shallowest_form_control": null, "candidate_weak_layer_member_fraction": null, "candidate_weak_layer_shallowest_depth_vertical_m_control": null, "candidate_weak_layer_form_control": null, "surface_lwc_vol_frac_max_member_p50": null, "status": "unsupported: forest canopy: SNOWPACK canopy module not enabled/validated (CANOPY=FALSE)"}}, {"type": "Feature", "geometry": {"type": "Polygon", "coordinates": [[[-115.64103493064427, 51.17352876972812], [-115.62673441663951, 51.173361754859286], [-115.62646727585886, 51.1823513940924], [-115.64077056963808, 51.18251846227737], [-115.64103493064427, 51.17352876972812]]]}, "properties": {"unit_id": "u005_005", "supported": false, "elevation_m": 1596.8, "slope_deg": 3.7, "aspect_deg": 302.6, "sky_view_factor": 0.906, "land_cover": "forest", "unit_resolution_m": 1000.0, "transport_status": "unresolved", "synthetic_inputs": true, "lead_hours": 24, "valid_time": "2026-01-16T00:00:00+00:00", "n_members": null, "hs_vertical_m_control": null, "hs_vertical_m_p10": null, "hs_vertical_m_p50": null, "hs_vertical_m_p90": null, "swe_kg_m2_horizontal_p50": null, "new_snow_since_init_vertical_m_control": null, "new_snow_since_init_vertical_m_p50": null, "crust_present_member_fraction": null, "crust_shallowest_depth_vertical_m_control": null, "crust_shallowest_form_control": null, "candidate_weak_layer_member_fraction": null, "candidate_weak_layer_shallowest_depth_vertical_m_control": null, "candidate_weak_layer_form_control": null, "surface_lwc_vol_frac_max_member_p50": null, "status": "unsupported: forest canopy: SNOWPACK canopy module not enabled/validated (CANOPY=FALSE)"}}, {"type": "Feature", "geometry": {"type": "Polygon", "coordinates": [[[-115.62673441663951, 51.173361754859286], [-115.61243404021803, 51.173192992413504], [-115.61216411975624, 51.18218257777301], [-115.62646727585886, 51.1823513940924], [-115.62673441663951, 51.173361754859286]]]}, "properties": {"unit_id": "u005_006", "supported": false, "elevation_m": 1626.6, "slope_deg": 7.0, "aspect_deg": 14.7, "sky_view_factor": 0.915, "land_cover": "forest", "unit_resolution_m": 1000.0, "transport_status": "unresolved", "synthetic_inputs": true, "lead_hours": 24, "valid_time": "2026-01-16T00:00:00+00:00", "n_members": null, "hs_vertical_m_control": null, "hs_vertical_m_p10": null, "hs_vertical_m_p50": null, "hs_vertical_m_p90": null, "swe_kg_m2_horizontal_p50": null, "new_snow_since_init_vertical_m_control": null, "new_snow_since_init_vertical_m_p50": null, "crust_present_member_fraction": null, "crust_shallowest_depth_vertical_m_control": null, "crust_shallowest_form_control": null, "candidate_weak_layer_member_fraction": null, "candidate_weak_layer_shallowest_depth_vertical_m_control": null, "candidate_weak_layer_form_control": null, "surface_lwc_vol_frac_max_member_p50": null, "status": "unsupported: forest canopy: SNOWPACK canopy module not enabled/validated (CANOPY=FALSE)"}}, {"type": "Feature", "geometry": {"type": "Polygon", "coordinates": [[[-115.61243404021803, 51.173192992413504], [-115.59813380281018, 51.17302248243045], [-115.59786110276153, 51.18201201335887], [-115.61216411975624, 51.18218257777301], [-115.61243404021803, 51.173192992413504]]]}, "properties": {"unit_id": "u005_007", "supported": false, "elevation_m": 1581.6, "slope_deg": 2.1, "aspect_deg": 86.1, "sky_view_factor": 0.955, "land_cover": "forest", "unit_resolution_m": 1000.0, "transport_status": "unresolved", "synthetic_inputs": true, "lead_hours": 24, "valid_time": "2026-01-16T00:00:00+00:00", "n_members": null, "hs_vertical_m_control": null, "hs_vertical_m_p10": null, "hs_vertical_m_p50": null, "hs_vertical_m_p90": null, "swe_kg_m2_horizontal_p50": null, "new_snow_since_init_vertical_m_control": null, "new_snow_since_init_vertical_m_p50": null, "crust_present_member_fraction": null, "crust_shallowest_depth_vertical_m_control": null, "crust_shallowest_form_control": null, "candidate_weak_layer_member_fraction": null, "candidate_weak_layer_shallowest_depth_vertical_m_control": null, "candidate_weak_layer_form_control": null, "surface_lwc_vol_frac_max_member_p50": null, "status": "unsupported: forest canopy: SNOWPACK canopy module not enabled/validated (CANOPY=FALSE)"}}, {"type": "Feature", "geometry": {"type": "Polygon", "coordinates": [[[-115.71278984611794, 51.165347663516776], [-115.6984914444505, 51.16518943762204], [-115.69823833388645, 51.174179352655074], [-115.71253951434963, 51.17433762905858], [-115.71278984611794, 51.165347663516776]]]}, "properties": {"unit_id": "u006_000", "supported": false, "elevation_m": 1543.6, "slope_deg": 2.2, "aspect_deg": 227.9, "sky_view_factor": 0.945, "land_cover": "forest", "unit_resolution_m": 1000.0, "transport_status": "unresolved", "synthetic_inputs": true, "lead_hours": 24, "valid_time": "2026-01-16T00:00:00+00:00", "n_members": null, "hs_vertical_m_control": null, "hs_vertical_m_p10": null, "hs_vertical_m_p50": null, "hs_vertical_m_p90": null, "swe_kg_m2_horizontal_p50": null, "new_snow_since_init_vertical_m_control": null, "new_snow_since_init_vertical_m_p50": null, "crust_present_member_fraction": null, "crust_shallowest_depth_vertical_m_control": null, "crust_shallowest_form_control": null, "candidate_weak_layer_member_fraction": null, "candidate_weak_layer_shallowest_depth_vertical_m_control": null, "candidate_weak_layer_form_control": null, "surface_lwc_vol_frac_max_member_p50": null, "status": "unsupported: forest canopy: SNOWPACK canopy module not enabled/validated (CANOPY=FALSE)"}}, {"type": "Feature", "geometry": {"type": "Polygon", "coordinates": [[[-115.6984914444505, 51.16518943762204], [-115.68419317312501, 51.1650294645156], [-115.68393728385361, 51.17401932848246], [-115.69823833388645, 51.174179352655074], [-115.6984914444505, 51.16518943762204]]]}, "properties": {"unit_id": "u006_001", "supported": true, "elevation_m": 1752.2, "slope_deg": 28.7, "aspect_deg": 267.0, "sky_view_factor": 0.91, "land_cover": "open", "unit_resolution_m": 1000.0, "transport_status": "unresolved", "synthetic_inputs": true, "lead_hours": 24, "valid_time": "2026-01-16T00:00:00+00:00", "n_members": 5.0, "hs_vertical_m_control": 1.0835, "hs_vertical_m_p10": 1.072, "hs_vertical_m_p50": 1.0771, "hs_vertical_m_p90": 1.083, "swe_kg_m2_horizontal_p50": 288.99, "new_snow_since_init_vertical_m_control": 0.0766, "new_snow_since_init_vertical_m_p50": 0.0685, "crust_present_member_fraction": 1.0, "crust_shallowest_depth_vertical_m_control": 0.765, "crust_shallowest_form_control": "MFcr", "candidate_weak_layer_member_fraction": 1.0, "candidate_weak_layer_shallowest_depth_vertical_m_control": 0.077, "candidate_weak_layer_form_control": "FC", "surface_lwc_vol_frac_max_member_p50": 0.0, "status": "ok"}}, {"type": "Feature", "geometry": {"type": "Polygon", "coordinates": [[[-115.68419317312501, 51.1650294645156], [-115.66989503357124, 51.164867744235], [-115.66963636568187, 51.17385755657834], [-115.68393728385361, 51.17401932848246], [-115.68419317312501, 51.1650294645156]]]}, "properties": {"unit_id": "u006_002", "supported": true, "elevation_m": 2365.7, "slope_deg": 1.5, "aspect_deg": 172.2, "sky_view_factor": 0.994, "land_cover": "open", "unit_resolution_m": 1000.0, "transport_status": "unresolved", "synthetic_inputs": true, "lead_hours": 24, "valid_time": "2026-01-16T00:00:00+00:00", "n_members": 5.0, "hs_vertical_m_control": 1.3119, "hs_vertical_m_p10": 1.3165, "hs_vertical_m_p50": 1.3247, "hs_vertical_m_p90": 1.34, "swe_kg_m2_horizontal_p50": 344.56, "new_snow_since_init_vertical_m_control": 0.0708, "new_snow_since_init_vertical_m_p50": 0.0838, "crust_present_member_fraction": 1.0, "crust_shallowest_depth_vertical_m_control": 0.795, "crust_shallowest_form_control": "MFcr", "candidate_weak_layer_member_fraction": 1.0, "candidate_weak_layer_shallowest_depth_vertical_m_control": 0.071, "candidate_weak_layer_form_control": "FCxr", "surface_lwc_vol_frac_max_member_p50": 0.0, "status": "ok"}}, {"type": "Feature", "geometry": {"type": "Polygon", "coordinates": [[[-115.66989503357124, 51.164867744235], [-115.65559702721889, 51.164704276818306], [-115.65533558080189, 51.17369403698075], [-115.66963636568187, 51.17385755657834], [-115.66989503357124, 51.164867744235]]]}, "properties": {"unit_id": "u006_003", "supported": true, "elevation_m": 1753.8, "slope_deg": 28.8, "aspect_deg": 92.9, "sky_view_factor": 0.878, "land_cover": "open", "unit_resolution_m": 1000.0, "transport_status": "unresolved", "synthetic_inputs": true, "lead_hours": 24, "valid_time": "2026-01-16T00:00:00+00:00", "n_members": 5.0, "hs_vertical_m_control": 1.0835, "hs_vertical_m_p10": 1.0724, "hs_vertical_m_p50": 1.0778, "hs_vertical_m_p90": 1.083, "swe_kg_m2_horizontal_p50": 289.51, "new_snow_since_init_vertical_m_control": 0.0766, "new_snow_since_init_vertical_m_p50": 0.0705, "crust_present_member_fraction": 1.0, "crust_shallowest_depth_vertical_m_control": 0.74, "crust_shallowest_form_control": "MFcr", "candidate_weak_layer_member_fraction": 1.0, "candidate_weak_layer_shallowest_depth_vertical_m_control": 0.077, "candidate_weak_layer_form_control": "FCxr", "surface_lwc_vol_frac_max_member_p50": 0.0, "status": "ok"}}, {"type": "Feature", "geometry": {"type": "Polygon", "coordinates": [[[-115.65559702721889, 51.164704276818306], [-115.64129915549758, 51.16453906230387], [-115.64103493064427, 51.17352876972812], [-115.65533558080189, 51.17369403698075], [-115.65559702721889, 51.164704276818306]]]}, "properties": {"unit_id": "u006_004", "supported": false, "elevation_m": 1544.8, "slope_deg": 1.4, "aspect_deg": 201.7, "sky_view_factor": 0.922, "land_cover": "forest", "unit_resolution_m": 1000.0, "transport_status": "unresolved", "synthetic_inputs": true, "lead_hours": 24, "valid_time": "2026-01-16T00:00:00+00:00", "n_members": null, "hs_vertical_m_control": null, "hs_vertical_m_p10": null, "hs_vertical_m_p50": null, "hs_vertical_m_p90": null, "swe_kg_m2_horizontal_p50": null, "new_snow_since_init_vertical_m_control": null, "new_snow_since_init_vertical_m_p50": null, "crust_present_member_fraction": null, "crust_shallowest_depth_vertical_m_control": null, "crust_shallowest_form_control": null, "candidate_weak_layer_member_fraction": null, "candidate_weak_layer_shallowest_depth_vertical_m_control": null, "candidate_weak_layer_form_control": null, "surface_lwc_vol_frac_max_member_p50": null, "status": "unsupported: forest canopy: SNOWPACK canopy module not enabled/validated (CANOPY=FALSE)"}}, {"type": "Feature", "geometry": {"type": "Polygon", "coordinates": [[[-115.64129915549758, 51.16453906230387], [-115.62700141983686, 51.16437210073053], [-115.62673441663951, 51.173361754859286], [-115.64103493064427, 51.17352876972812], [-115.64129915549758, 51.16453906230387]]]}, "properties": {"unit_id": "u006_005", "supported": false, "elevation_m": 1690.7, "slope_deg": 16.9, "aspect_deg": 279.3, "sky_view_factor": 0.905, "land_cover": "forest", "unit_resolution_m": 1000.0, "transport_status": "unresolved", "synthetic_inputs": true, "lead_hours": 24, "valid_time": "2026-01-16T00:00:00+00:00", "n_members": null, "hs_vertical_m_control": null, "hs_vertical_m_p10": null, "hs_vertical_m_p50": null, "hs_vertical_m_p90": null, "swe_kg_m2_horizontal_p50": null, "new_snow_since_init_vertical_m_control": null, "new_snow_since_init_vertical_m_p50": null, "crust_present_member_fraction": null, "crust_shallowest_depth_vertical_m_control": null, "crust_shallowest_form_control": null, "candidate_weak_layer_member_fraction": null, "candidate_weak_layer_shallowest_depth_vertical_m_control": null, "candidate_weak_layer_form_control": null, "surface_lwc_vol_frac_max_member_p50": null, "status": "unsupported: forest canopy: SNOWPACK canopy module not enabled/validated (CANOPY=FALSE)"}}, {"type": "Feature", "geometry": {"type": "Polygon", "coordinates": [[[-115.62700141983686, 51.16437210073053], [-115.61270382166622, 51.16420339213752], [-115.61243404021803, 51.173192992413504], [-115.62673441663951, 51.173361754859286], [-115.62700141983686, 51.16437210073053]]]}, "properties": {"unit_id": "u006_006", "supported": true, "elevation_m": 1857.4, "slope_deg": 11.1, "aspect_deg": 49.8, "sky_view_factor": 0.962, "land_cover": "open", "unit_resolution_m": 1000.0, "transport_status": "unresolved", "synthetic_inputs": true, "lead_hours": 24, "valid_time": "2026-01-16T00:00:00+00:00", "n_members": 5.0, "hs_vertical_m_control": 1.1258, "hs_vertical_m_p10": 1.1195, "hs_vertical_m_p50": 1.1241, "hs_vertical_m_p90": 1.1254, "swe_kg_m2_horizontal_p50": 316.27, "new_snow_since_init_vertical_m_control": 0.0716, "new_snow_since_init_vertical_m_p50": 0.0693, "crust_present_member_fraction": 1.0, "crust_shallowest_depth_vertical_m_control": 0.724, "crust_shallowest_form_control": "MFcr", "candidate_weak_layer_member_fraction": 1.0, "candidate_weak_layer_shallowest_depth_vertical_m_control": 0.072, "candidate_weak_layer_form_control": "FC", "surface_lwc_vol_frac_max_member_p50": 0.0, "status": "ok"}}, {"type": "Feature", "geometry": {"type": "Polygon", "coordinates": [[[-115.61270382166622, 51.16420339213752], [-115.59840636241493, 51.16403293656447], [-115.59813380281018, 51.17302248243045], [-115.61243404021803, 51.173192992413504], [-115.61270382166622, 51.16420339213752]]]}, "properties": {"unit_id": "u006_007", "supported": false, "elevation_m": 1615.1, "slope_deg": 12.6, "aspect_deg": 86.3, "sky_view_factor": 0.974, "land_cover": "forest", "unit_resolution_m": 1000.0, "transport_status": "unresolved", "synthetic_inputs": true, "lead_hours": 24, "valid_time": "2026-01-16T00:00:00+00:00", "n_members": null, "hs_vertical_m_control": null, "hs_vertical_m_p10": null, "hs_vertical_m_p50": null, "hs_vertical_m_p90": null, "swe_kg_m2_horizontal_p50": null, "new_snow_since_init_vertical_m_control": null, "new_snow_since_init_vertical_m_p50": null, "crust_present_member_fraction": null, "crust_shallowest_depth_vertical_m_control": null, "crust_shallowest_form_control": null, "candidate_weak_layer_member_fraction": null, "candidate_weak_layer_shallowest_depth_vertical_m_control": null, "candidate_weak_layer_form_control": null, "surface_lwc_vol_frac_max_member_p50": null, "status": "unsupported: forest canopy: SNOWPACK canopy module not enabled/validated (CANOPY=FALSE)"}}, {"type": "Feature", "geometry": {"type": "Polygon", "coordinates": [[[-115.69874442467263, 51.15619950779406], [-115.68444893062467, 51.15603958573401], [-115.68419317312501, 51.1650294645156], [-115.6984914444505, 51.16518943762204], [-115.69874442467263, 51.15619950779406]]]}, "properties": {"unit_id": "u007_001", "supported": true, "elevation_m": 1782.8, "slope_deg": 33.3, "aspect_deg": 269.2, "sky_view_factor": 0.904, "land_cover": "open", "unit_resolution_m": 1000.0, "transport_status": "unresolved", "synthetic_inputs": true, "lead_hours": 24, "valid_time": "2026-01-16T00:00:00+00:00", "n_members": 5.0, "hs_vertical_m_control": 1.1133, "hs_vertical_m_p10": 1.1047, "hs_vertical_m_p50": 1.1065, "hs_vertical_m_p90": 1.1117, "swe_kg_m2_horizontal_p50": 295.42, "new_snow_since_init_vertical_m_control": 0.0758, "new_snow_since_init_vertical_m_p50": 0.0691, "crust_present_member_fraction": 1.0, "crust_shallowest_depth_vertical_m_control": 0.76, "crust_shallowest_form_control": "MFcr", "candidate_weak_layer_member_fraction": 1.0, "candidate_weak_layer_shallowest_depth_vertical_m_control": 0.076, "candidate_weak_layer_form_control": "FC", "surface_lwc_vol_frac_max_member_p50": 0.0, "status": "ok"}}, {"type": "Feature", "geometry": {"type": "Polygon", "coordinates": [[[-115.68444893062467, 51.15603958573401], [-115.67015356825915, 51.15587791705698], [-115.66989503357124, 51.164867744235], [-115.68419317312501, 51.1650294645156], [-115.68444893062467, 51.15603958573401]]]}, "properties": {"unit_id": "u007_002", "supported": true, "elevation_m": 2343.2, "slope_deg": 1.4, "aspect_deg": 169.2, "sky_view_factor": 0.997, "land_cover": "open", "unit_resolution_m": 1000.0, "transport_status": "unresolved", "synthetic_inputs": true, "lead_hours": 24, "valid_time": "2026-01-16T00:00:00+00:00", "n_members": 5.0, "hs_vertical_m_control": 1.2964, "hs_vertical_m_p10": 1.304, "hs_vertical_m_p50": 1.3168, "hs_vertical_m_p90": 1.332, "swe_kg_m2_horizontal_p50": 345.16, "new_snow_since_init_vertical_m_control": 0.0627, "new_snow_since_init_vertical_m_p50": 0.0833, "crust_present_member_fraction": 1.0, "crust_shallowest_depth_vertical_m_control": 0.788, "crust_shallowest_form_control": "MFcr", "candidate_weak_layer_member_fraction": 1.0, "candidate_weak_layer_shallowest_depth_vertical_m_control": 0.063, "candidate_weak_layer_form_control": "FCxr", "surface_lwc_vol_frac_max_member_p50": 0.0, "status": "ok"}}, {"type": "Feature", "geometry": {"type": "Polygon", "coordinates": [[[-115.67015356825915, 51.15587791705698], [-115.65585833900481, 51.15571450180095], [-115.65559702721889, 51.164704276818306], [-115.66989503357124, 51.164867744235], [-115.67015356825915, 51.15587791705698]]]}, "properties": {"unit_id": "u007_003", "supported": true, "elevation_m": 1730.5, "slope_deg": 28.4, "aspect_deg": 92.7, "sky_view_factor": 0.889, "land_cover": "open", "unit_resolution_m": 1000.0, "transport_status": "unresolved", "synthetic_inputs": true, "lead_hours": 24, "valid_time": "2026-01-16T00:00:00+00:00", "n_members": 5.0, "hs_vertical_m_control": 1.0571, "hs_vertical_m_p10": 1.0466, "hs_vertical_m_p50": 1.0518, "hs_vertical_m_p90": 1.0567, "swe_kg_m2_horizontal_p50": 277.14, "new_snow_since_init_vertical_m_control": 0.0774, "new_snow_since_init_vertical_m_p50": 0.0698, "crust_present_member_fraction": 1.0, "crust_shallowest_depth_vertical_m_control": 0.735, "crust_shallowest_form_control": "MFcr", "candidate_weak_layer_member_fraction": 1.0, "candidate_weak_layer_shallowest_depth_vertical_m_control": 0.077, "candidate_weak_layer_form_control": "FC", "surface_lwc_vol_frac_max_member_p50": 0.0, "status": "ok"}}, {"type": "Feature", "geometry": {"type": "Polygon", "coordinates": [[[-115.65585833900481, 51.15571450180095], [-115.64156324429027, 51.15554934000432], [-115.64129915549758, 51.16453906230387], [-115.65559702721889, 51.164704276818306], [-115.65585833900481, 51.15571450180095]]]}, "properties": {"unit_id": "u007_004", "supported": false, "elevation_m": 1523.9, "slope_deg": 1.8, "aspect_deg": 172.6, "sky_view_factor": 0.95, "land_cover": "forest", "unit_resolution_m": 1000.0, "transport_status": "unresolved", "synthetic_inputs": true, "lead_hours": 24, "valid_time": "2026-01-16T00:00:00+00:00", "n_members": null, "hs_vertical_m_control": null, "hs_vertical_m_p10": null, "hs_vertical_m_p50": null, "hs_vertical_m_p90": null, "swe_kg_m2_horizontal_p50": null, "new_snow_since_init_vertical_m_control": null, "new_snow_since_init_vertical_m_p50": null, "crust_present_member_fraction": null, "crust_shallowest_depth_vertical_m_control": null, "crust_shallowest_form_control": null, "candidate_weak_layer_member_fraction": null, "candidate_weak_layer_shallowest_depth_vertical_m_control": null, "candidate_weak_layer_form_control": null, "surface_lwc_vol_frac_max_member_p50": null, "status": "unsupported: forest canopy: SNOWPACK canopy module not enabled/validated (CANOPY=FALSE)"}}, {"type": "Feature", "geometry": {"type": "Polygon", "coordinates": [[[-115.64156324429027, 51.15554934000432], [-115.62726828554416, 51.15538243170587], [-115.62700141983686, 51.16437210073053], [-115.64129915549758, 51.16453906230387], [-115.64156324429027, 51.15554934000432]]]}, "properties": {"unit_id": "u007_005", "supported": false, "elevation_m": 1611.4, "slope_deg": 14.9, "aspect_deg": 223.3, "sky_view_factor": 0.957, "land_cover": "forest", "unit_resolution_m": 1000.0, "transport_status": "unresolved", "synthetic_inputs": true, "lead_hours": 24, "valid_time": "2026-01-16T00:00:00+00:00", "n_members": null, "hs_vertical_m_control": null, "hs_vertical_m_p10": null, "hs_vertical_m_p50": null, "hs_vertical_m_p90": null, "swe_kg_m2_horizontal_p50": null, "new_snow_since_init_vertical_m_control": null, "new_snow_since_init_vertical_m_p50": null, "crust_present_member_fraction": null, "crust_shallowest_depth_vertical_m_control": null, "crust_shallowest_form_control": null, "candidate_weak_layer_member_fraction": null, "candidate_weak_layer_shallowest_depth_vertical_m_control": null, "candidate_weak_layer_form_control": null, "surface_lwc_vol_frac_max_member_p50": null, "status": "unsupported: forest canopy: SNOWPACK canopy module not enabled/validated (CANOPY=FALSE)"}}, {"type": "Feature", "geometry": {"type": "Polygon", "coordinates": [[[-115.62726828554416, 51.15538243170587], [-115.61297346419494, 51.15521377694478], [-115.61270382166622, 51.16420339213752], [-115.62700141983686, 51.16437210073053], [-115.62726828554416, 51.15538243170587]]]}, "properties": {"unit_id": "u007_006", "supported": true, "elevation_m": 1717.0, "slope_deg": 21.2, "aspect_deg": 166.0, "sky_view_factor": 0.964, "land_cover": "open", "unit_resolution_m": 1000.0, "transport_status": "unresolved", "synthetic_inputs": true, "lead_hours": 24, "valid_time": "2026-01-16T00:00:00+00:00", "n_members": 5.0, "hs_vertical_m_control": 1.0233, "hs_vertical_m_p10": 1.0127, "hs_vertical_m_p50": 1.0177, "hs_vertical_m_p90": 1.0229, "swe_kg_m2_horizontal_p50": 272.16, "new_snow_since_init_vertical_m_control": 0.0758, "new_snow_since_init_vertical_m_p50": 0.0698, "crust_present_member_fraction": 1.0, "crust_shallowest_depth_vertical_m_control": 0.75, "crust_shallowest_form_control": "MFcr", "candidate_weak_layer_member_fraction": 1.0, "candidate_weak_layer_shallowest_depth_vertical_m_control": 0.076, "candidate_weak_layer_form_control": "FC", "surface_lwc_vol_frac_max_member_p50": 0.0, "status": "ok"}}]}